{"type": "FeatureCollection", "features": [ {"type": "Feature", "properties": {"norad_id": 31456, "name": "FENGYUN 1C DEB", "group": "fengyun-1c-debris", "lat": 10.107731207962054, "lon": 101.52849382152162, "alt_km": 758.5091082827266, "timestamp": "2025-12-26T15:29:39.721868+00:00", "meta": {"OBJECT_NAME": "FENGYUN 1C DEB", "OBJECT_ID": "1999-025BUU", "EPOCH": "2025-12-25T12:48:38.504736", "MEAN_MOTION": 14.42466354, "ECCENTRICITY": 0.0067741, "INCLINATION": 98.5769, "RA_OF_ASC_NODE": 101.9524, "ARG_OF_PERICENTER": 275.3984, "MEAN_ANOMALY": 83.948, "EPHEMERIS_TYPE": 0, "CLASSIFICATION_TYPE": "U", "NORAD_CAT_ID": 31456, "ELEMENT_SET_NO": 999, "REV_AT_EPOCH": 97651, "BSTAR": 0.00090036, "MEAN_MOTION_DOT": 3.019e-05, "MEAN_MOTION_DDOT": 0}, "tle": {"line1": "1 31456U 99025BUU 25359.53377899  .00003019  00000+0  90036-3 0  9992", "line2": "2 31456  98.5769 101.9524 0067741 275.3984  83.9480 14.42466354976519"}}, "geometry": {"type": "Point", "coordinates": [101.52849382152162, 10.107731207962054]}}, {"type": "Feature", "properties": {"norad_id": 31459, "name": "FENGYUN 1C DEB", "group": "fengyun-1c-debris", "lat": 37.750286208964816, "lon": -98.01696513452717, "alt_km": 699.2362408112522, "timestamp": "2025-12-26T15:29:39.721878+00:00", "meta": {"OBJECT_NAME": "FENGYUN 1C DEB", "OBJECT_ID": "1999-025BUX", "EPOCH": "2025-12-12T23:44:38.705568", "MEAN_MOTION": 14.44083824, "ECCENTRICITY": 0.00940456, "INCLINATION": 98.1765, "RA_OF_ASC_NODE": 255.2445, "ARG_OF_PERICENTER": 130.906, "MEAN_ANOMALY": 230.0325, "EPHEMERIS_TYPE": 0, "CLASSIFICATION_TYPE": "U", "NORAD_CAT_ID": 31459, "ELEMENT_SET_NO": 999, "REV_AT_EPOCH": 64561, "BSTAR": 0.0020176648, "MEAN_MOTION_DOT": 7.253e-05, "MEAN_MOTION_DDOT": 0}, "tle": {"line1": "1 31459U 99025BUX 25346.98933687  .00007253  00000+0  20177-2 0  9995", "line2": "2 31459  98.1765 255.2445 0094045 130.9060 230.0325 14.44083824645613"}}, "geometry": {"type": "Point", "coordinates": [-98.01696513452717, 37.750286208964816]}}, {"type": "Feature", "properties": {"norad_id": 31462, "name": "FENGYUN 1C DEB", "group": "fengyun-1c-debris", "lat": 75.09756040853652, "lon": -126.2884645147083, "alt_km": 830.9474948864654, "timestamp": "2025-12-26T15:29:39.721888+00:00", "meta": {"OBJECT_NAME": "FENGYUN 1C DEB", "OBJECT_ID": "1999-025BVA", "EPOCH": "2025-12-22T13:11:27.568896", "MEAN_MOTION": 14.13022344, "ECCENTRICITY": 0.00325464, "INCLINATION": 98.689, "RA_OF_ASC_NODE": 14.663, "ARG_OF_PERICENTER": 176.2989, "MEAN_ANOMALY": 342.0684, "EPHEMERIS_TYPE": 0, "CLASSIFICATION_TYPE": "U", "NORAD_CAT_ID": 31462, "ELEMENT_SET_NO": 999, "REV_AT_EPOCH": 95994, "BSTAR": 0.00028157306, "MEAN_MOTION_DOT": 4.85e-06, "MEAN_MOTION_DDOT": 0}, "tle": {"line1": "1 31462U 99025BVA 25356.54962464  .00000485  00000+0  28157-3 0  9994", "line2": "2 31462  98.6890  14.6630 0032546 176.2989 342.0684 14.13022344959947"}}, "geometry": {"type": "Point", "coordinates": [-126.2884645147083, 75.09756040853652]}}, {"type": "Feature", "properties": {"norad_id": 31463, "name": "FENGYUN 1C DEB", "group": "fengyun-1c-debris", "lat": -5.541521235490599, "lon": 162.21433815017315, "alt_km": 923.4391460326206, "timestamp": "2025-12-26T15:29:39.721899+00:00", "meta": {"OBJECT_NAME": "FENGYUN 1C DEB", "OBJECT_ID": "1999-025BVB", "EPOCH": "2025-12-23T04:45:01.858752", "MEAN_MOTION": 14.36987164, "ECCENTRICITY": 0.02131915, "INCLINATION": 99.0817, "RA_OF_ASC_NODE": 339.4644, "ARG_OF_PERICENTER": 9.2607, "MEAN_ANOMALY": 351.2414, "EPHEMERIS_TYPE": 0, "CLASSIFICATION_TYPE": "U", "NORAD_CAT_ID": 31463, "ELEMENT_SET_NO": 999, "REV_AT_EPOCH": 64870, "BSTAR": 0.00056955164, "MEAN_MOTION_DOT": 2.135e-05, "MEAN_MOTION_DDOT": 0}, "tle": {"line1": "1 31463U 99025BVB 25357.19793818  .00002135  00000+0  56955-3 0  9993", "line2": "2 31463  99.0817 339.4644 0213191   9.2607 351.2414 14.36987164648701"}}, "geometry": {"type": "Point", "coordinates": [162.21433815017315, -5.541521235490599]}}, {"type": "Feature", "properties": {"norad_id": 31464, "name": "FENGYUN 1C DEB", "group": "fengyun-1c-debris", "lat": 19.082029256433582, "lon": 44.1020808818062, "alt_km": 882.5283431698908, "timestamp": "2025-12-26T15:29:39.721909+00:00", "meta": {"OBJECT_NAME": "FENGYUN 1C DEB", "OBJECT_ID": "1999-025BVC", "EPOCH": "2025-12-24T23:10:31.080000", "MEAN_MOTION": 14.12490109, "ECCENTRICITY": 0.00436815, "INCLINATION": 98.7932, "RA_OF_ASC_NODE": 45.523, "ARG_OF_PERICENTER": 207.1359, "MEAN_ANOMALY": 274.483, "EPHEMERIS_TYPE": 0, "CLASSIFICATION_TYPE": "U", "NORAD_CAT_ID": 31464, "ELEMENT_SET_NO": 999, "REV_AT_EPOCH": 94852, "BSTAR": 0.00029095941, "MEAN_MOTION_DOT": 4.99e-06, "MEAN_MOTION_DDOT": 0}, "tle": {"line1": "1 31464U 99025BVC 25358.96563750  .00000499  00000+0  29096-3 0  9997", "line2": "2 31464  98.7932  45.5230 0043681 207.1359 274.4830 14.12490109948523"}}, "geometry": {"type": "Point", "coordinates": [44.1020808818062, 19.082029256433582]}}, {"type": "Feature", "properties": {"norad_id": 31466, "name": "FENGYUN 1C DEB", "group": "fengyun-1c-debris", "lat": -31.77280758209784, "lon": 105.26938073587839, "alt_km": 714.7168658310193, "timestamp": "2025-12-26T15:29:39.721919+00:00", "meta": {"OBJECT_NAME": "FENGYUN 1C DEB", "OBJECT_ID": "1999-025BVE", "EPOCH": "2025-12-26T00:55:31.560672", "MEAN_MOTION": 14.18538299, "ECCENTRICITY": 0.02987418, "INCLINATION": 99.0886, "RA_OF_ASC_NODE": 290.3365, "ARG_OF_PERICENTER": 270.9055, "MEAN_ANOMALY": 85.7907, "EPHEMERIS_TYPE": 0, "CLASSIFICATION_TYPE": "U", "NORAD_CAT_ID": 31466, "ELEMENT_SET_NO": 999, "REV_AT_EPOCH": 96517, "BSTAR": 0.00018244871, "MEAN_MOTION_DOT": 5.29e-06, "MEAN_MOTION_DDOT": 0}, "tle": {"line1": "1 31466U 99025BVE 25360.03855973  .00000529  00000+0  18245-3 0  9999", "line2": "2 31466  99.0886 290.3365 0298741 270.9055  85.7907 14.18538299965173"}}, "geometry": {"type": "Point", "coordinates": [105.26938073587839, -31.77280758209784]}}, {"type": "Feature", "properties": {"norad_id": 31468, "name": "FENGYUN 1C DEB", "group": "fengyun-1c-debris", "lat": -77.22811585747604, "lon": 136.94220992728026, "alt_km": 828.0153629619135, "timestamp": "2025-12-26T15:29:39.721929+00:00", "meta": {"OBJECT_NAME": "FENGYUN 1C DEB", "OBJECT_ID": "1999-025BVG", "EPOCH": "2025-12-15T17:40:52.277088", "MEAN_MOTION": 14.46598121, "ECCENTRICITY": 0.01665536, "INCLINATION": 98.1678, "RA_OF_ASC_NODE": 345.7354, "ARG_OF_PERICENTER": 157.6429, "MEAN_ANOMALY": 203.2135, "EPHEMERIS_TYPE": 0, "CLASSIFICATION_TYPE": "U", "NORAD_CAT_ID": 31468, "ELEMENT_SET_NO": 999, "REV_AT_EPOCH": 67415, "BSTAR": 0.00027310227, "MEAN_MOTION_DOT": 1.122e-05, "MEAN_MOTION_DDOT": 0}, "tle": {"line1": "1 31468U 99025BVG 25349.73671617  .00001122  00000+0  27310-3 0  9999", "line2": "2 31468  98.1678 345.7354 0166553 157.6429 203.2135 14.46598121674154"}}, "geometry": {"type": "Point", "coordinates": [136.94220992728026, -77.22811585747604]}}, {"type": "Feature", "properties": {"norad_id": 31473, "name": "FENGYUN 1C DEB", "group": "fengyun-1c-debris", "lat": -69.31698881453497, "lon": 56.917006357742785, "alt_km": 766.3531523242837, "timestamp": "2025-12-26T15:29:39.721939+00:00", "meta": {"OBJECT_NAME": "FENGYUN 1C DEB", "OBJECT_ID": "1999-025BVM", "EPOCH": "2025-12-25T01:18:58.811904", "MEAN_MOTION": 14.2987005, "ECCENTRICITY": 0.00644258, "INCLINATION": 98.5447, "RA_OF_ASC_NODE": 31.8881, "ARG_OF_PERICENTER": 338.2554, "MEAN_ANOMALY": 47.4091, "EPHEMERIS_TYPE": 0, "CLASSIFICATION_TYPE": "U", "NORAD_CAT_ID": 31473, "ELEMENT_SET_NO": 999, "REV_AT_EPOCH": 69697, "BSTAR": 0.0014425568, "MEAN_MOTION_DOT": 3.754e-05, "MEAN_MOTION_DDOT": 0}, "tle": {"line1": "1 31473U 99025BVM 25359.05484736  .00003754  00000+0  14426-2 0  9991", "line2": "2 31473  98.5447  31.8881 0064425 338.2554  47.4091 14.29870050696975"}}, "geometry": {"type": "Point", "coordinates": [56.917006357742785, -69.31698881453497]}}, {"type": "Feature", "properties": {"norad_id": 31474, "name": "FENGYUN 1C DEB", "group": "fengyun-1c-debris", "lat": -25.440439587991055, "lon": 51.13728519163449, "alt_km": 913.3039683097768, "timestamp": "2025-12-26T15:29:39.721949+00:00", "meta": {"OBJECT_NAME": "FENGYUN 1C DEB", "OBJECT_ID": "1999-025BVN", "EPOCH": "2025-12-26T01:59:59.282592", "MEAN_MOTION": 14.10653684, "ECCENTRICITY": 0.00721093, "INCLINATION": 99.1439, "RA_OF_ASC_NODE": 46.1713, "ARG_OF_PERICENTER": 169.7749, "MEAN_ANOMALY": 190.4907, "EPHEMERIS_TYPE": 0, "CLASSIFICATION_TYPE": "U", "NORAD_CAT_ID": 31474, "ELEMENT_SET_NO": 999, "REV_AT_EPOCH": 95158, "BSTAR": 0.0012239962, "MEAN_MOTION_DOT": 2.194e-05, "MEAN_MOTION_DDOT": 0}, "tle": {"line1": "1 31474U 99025BVN 25360.08332503  .00002194  00000+0  12240-2 0  9990", "line2": "2 31474  99.1439  46.1713 0072109 169.7749 190.4907 14.10653684951586"}}, "geometry": {"type": "Point", "coordinates": [51.13728519163449, -25.440439587991055]}}, {"type": "Feature", "properties": {"norad_id": 31475, "name": "FENGYUN 1C DEB", "group": "fengyun-1c-debris", "lat": -49.213469629000286, "lon": 59.40406253658134, "alt_km": 916.0238444667866, "timestamp": "2025-12-26T15:29:39.721959+00:00", "meta": {"OBJECT_NAME": "FENGYUN 1C DEB", "OBJECT_ID": "1999-025BVP", "EPOCH": "2025-12-23T22:59:46.307040", "MEAN_MOTION": 14.38250709, "ECCENTRICITY": 0.0211772, "INCLINATION": 98.9391, "RA_OF_ASC_NODE": 247.1174, "ARG_OF_PERICENTER": 74.1506, "MEAN_ANOMALY": 288.2912, "EPHEMERIS_TYPE": 0, "CLASSIFICATION_TYPE": "U", "NORAD_CAT_ID": 31475, "ELEMENT_SET_NO": 999, "REV_AT_EPOCH": 96240, "BSTAR": 0.00069378, "MEAN_MOTION_DOT": 2.684e-05, "MEAN_MOTION_DDOT": 0}, "tle": {"line1": "1 31475U 99025BVP 25357.95817485  .00002684  00000+0  69378-3 0  9999", "line2": "2 31475  98.9391 247.1174 0211772  74.1506 288.2912 14.38250709962402"}}, "geometry": {"type": "Point", "coordinates": [59.40406253658134, -49.213469629000286]}}]}